ONEWEB-0597             
1 54663U 22166X   25354.03848147  .00000046  00000+0  79322-4 0  9991
2 54663  87.9226 279.7251 0001859  80.1272 280.0072 13.21826281147876
ONEWEB-0600             
1 54664U 22166Y   25354.09607185 -.00000030  00000+0 -10535-3 0  9998
2 54664  87.9225 279.7042 0001940  75.2008 284.9341 13.21825621147854
ONEWEB-0601             
1 54665U 22166Z   25354.08784334  .00000034  00000+0  51952-4 0  9991
2 54665  87.9227 279.7239 0001876  82.8653 277.2694 13.21826642148045
ONEWEB-0602             
1 54666U 22166AA  25354.05244558  .00001178  00000+0  28211-2 0  9998
2 54666  87.9227 279.7353 0002106  75.1682 284.9685 13.21836715147885
ONEWEB-0603             
1 54667U 22166AB  25354.05822811  .00000134  00000+0  29275-3 0  9996
2 54667  87.9235 279.6739 0001922  79.0426 281.0924 13.21825311147813
ONEWEB-0604             
1 54668U 22166AC  25353.21404263  .00000108  00000+0  23049-3 0  9995
2 54668  87.9226 279.8613 0001801  74.7491 285.3842 13.21824759147661
ONEWEB-0605             
1 54669U 22166AD  25354.04012657  .00000062  00000+0  11907-3 0  9999
2 54669  87.9225 279.7245 0001828  96.8155 263.3187 13.21826163147841
ONEWEB-0606             
1 54670U 22166AE  25354.06151626  .00000137  00000+0  30033-3 0  9997
2 54670  87.9227 279.7315 0001671  72.0077 288.1239 13.21827117147908
